*******************************************************************************
Ephemeris / WWW_USER Mon Jul 15 19:11:38 2024 Pasadena, USA      / Horizons    
*******************************************************************************
Target body name: (2018 RY7)                      {source: JPL#20}
Center body name: Earth (399)                     {source: DE441}
Center-site name: Gemini South Obs., Cerro Pachon
*******************************************************************************
Start time      : A.D. 2018-Oct-13 23:00:00.0000 UT      
Stop  time      : A.D. 2018-Oct-14 09:57:00.0000 UT      
Step-size       : 1 minutes
*******************************************************************************
Target pole/equ : undefined
Target radii    : undefined                                                    
Center geodetic : 289.2634, -30.2406227, 2.71233  {E-lon(deg),Lat(deg),Alt(km)}
Center cylindric: 289.2634,5517.21435,-3194.81213 {E-lon(deg),Dxy(km),Dz(km)}
Center pole/equ : ITRF93                          {East-longitude positive}
Center radii    : 6378.137, 6378.137, 6356.752 km {Equator_a, b, pole_c}       
Target primary  : Sun
Vis. interferer : MOON (R_eq= 1737.400) km        {source: DE441}
Rel. light bend : Sun                             {source: DE441}
Rel. lght bnd GM: 1.3271E+11 km^3/s^2                                          
Small-body perts: Yes                             {source: SB441-N16}
Atmos refraction: NO (AIRLESS)
RA format       : HMS
Time format     : CAL 
Calendar mode   : Mixed Julian/Gregorian
RTS-only print  : NO       
EOP file        : eop.240715.p241008                                           
EOP coverage    : DATA-BASED 1962-JAN-20 TO 2024-JUL-15. PREDICTS-> 2024-OCT-07
Units conversion: 1 au= 149597870.700 km, c= 299792.458 km/s, 1 day= 86400.0 s 
Table cut-offs 1: Elevation (-90.0deg=NO ),Airmass (>38.000=NO), Daylight (YES)
Table cut-offs 2: Solar elongation (  0.0,180.0=NO ),Local Hour Angle( 0.0=NO )
Table cut-offs 3: RA/DEC angular rate (     0.0=NO )                           
*******************************************************************************
Initial IAU76/J2000 heliocentric ecliptic osculating elements (au, days, deg.):
  EPOCH=  2458422.5 ! 2018-Oct-31.00 (TDB)         Residual RMS= .22459        
   EC= .1470549687381346   QR= .8667733479166969   TP= 2458516.8896767548      
   OM= 2.838668085760325   W=  136.9006026425241   IN= 13.35135890147074       
  Equivalent ICRF heliocentric cartesian coordinates (au, au/d):
   X= 8.791791513870114E-01  Y= 4.508422091141234E-01  Z= 3.244113040133835E-01
  VX=-1.085418916943652E-02 VY= 1.006005810562689E-02 VZ= 7.673980932675997E-03
Asteroid physical parameters (km, seconds, rotational period in hours):        
   GM= n.a.                RAD= n.a.               ROTPER= n.a.                
   H= 24.4                 G= .150                 B-V= n.a.                   
                           ALBEDO= n.a.            STYP= n.a.                  
*******************************************************************************
 Date__(UT)__HR:MN     R.A._________(ICRF)_________DEC
******************************************************
$$SOE
 2018-Oct-14 05:09     22 01 32.669255 +23 11 29.82232
 2018-Oct-14 05:10     22 01 32.394132 +23 11 31.85216
 2018-Oct-14 05:11     22 01 32.119092 +23 11 33.88167
 2018-Oct-14 05:12     22 01 31.844138 +23 11 35.91084
 2018-Oct-14 05:13     22 01 31.569268 +23 11 37.93967
 2018-Oct-14 05:14     22 01 31.294483 +23 11 39.96817
 2018-Oct-14 05:15     22 01 31.019783 +23 11 41.99633
 2018-Oct-14 05:16     22 01 30.745169 +23 11 44.02416
 2018-Oct-14 05:17     22 01 30.470640 +23 11 46.05166
 2018-Oct-14 05:18     22 01 30.196197 +23 11 48.07883
 2018-Oct-14 05:19     22 01 29.921840 +23 11 50.10568
 2018-Oct-14 05:20     22 01 29.647569 +23 11 52.13220
 2018-Oct-14 05:21     22 01 29.373384 +23 11 54.15840
 2018-Oct-14 05:22     22 01 29.099286 +23 11 56.18427
 2018-Oct-14 05:23     22 01 28.825274 +23 11 58.20983
 2018-Oct-14 05:24     22 01 28.551350 +23 12 00.23508
 2018-Oct-14 05:25     22 01 28.277512 +23 12 02.26001
 2018-Oct-14 05:26     22 01 28.003762 +23 12 04.28462
 2018-Oct-14 05:27     22 01 27.730099 +23 12 06.30893
 2018-Oct-14 05:28     22 01 27.456524 +23 12 08.33292
 2018-Oct-14 05:29     22 01 27.183036 +23 12 10.35661
 2018-Oct-14 05:30     22 01 26.909637 +23 12 12.37999
 2018-Oct-14 05:31     22 01 26.636325 +23 12 14.40307
 2018-Oct-14 05:32     22 01 26.363102 +23 12 16.42585
 2018-Oct-14 05:33     22 01 26.089968 +23 12 18.44833
 2018-Oct-14 05:34     22 01 25.816922 +23 12 20.47052
 2018-Oct-14 05:35     22 01 25.543965 +23 12 22.49240
 2018-Oct-14 05:36     22 01 25.271097 +23 12 24.51400
 2018-Oct-14 05:37     22 01 24.998318 +23 12 26.53530
 2018-Oct-14 05:38     22 01 24.725628 +23 12 28.55631
 2018-Oct-14 05:39     22 01 24.453028 +23 12 30.57704
 2018-Oct-14 05:40     22 01 24.180517 +23 12 32.59748
 2018-Oct-14 05:41     22 01 23.908096 +23 12 34.61763
 2018-Oct-14 05:42     22 01 23.635766 +23 12 36.63751
 2018-Oct-14 05:43     22 01 23.363525 +23 12 38.65710
 2018-Oct-14 05:44     22 01 23.091374 +23 12 40.67642
 2018-Oct-14 05:45     22 01 22.819314 +23 12 42.69546
 2018-Oct-14 05:46     22 01 22.547345 +23 12 44.71423
 2018-Oct-14 05:47     22 01 22.275466 +23 12 46.73273
 2018-Oct-14 05:48     22 01 22.003678 +23 12 48.75095
 2018-Oct-14 05:49     22 01 21.731981 +23 12 50.76891
 2018-Oct-14 05:50     22 01 21.460375 +23 12 52.78661
 2018-Oct-14 05:51     22 01 21.188861 +23 12 54.80404
 2018-Oct-14 05:52     22 01 20.917438 +23 12 56.82121
 2018-Oct-14 05:53     22 01 20.646106 +23 12 58.83812
 2018-Oct-14 05:54     22 01 20.374866 +23 13 00.85477
 2018-Oct-14 05:55     22 01 20.103718 +23 13 02.87117
 2018-Oct-14 05:56     22 01 19.832662 +23 13 04.88731
 2018-Oct-14 05:57     22 01 19.561698 +23 13 06.90320
 2018-Oct-14 05:58     22 01 19.290827 +23 13 08.91884
 2018-Oct-14 05:59     22 01 19.020047 +23 13 10.93424
 2018-Oct-14 06:00     22 01 18.749360 +23 13 12.94939
 2018-Oct-14 06:01     22 01 18.478766 +23 13 14.96430
 2018-Oct-14 06:02     22 01 18.208265 +23 13 16.97896
 2018-Oct-14 06:03     22 01 17.937856 +23 13 18.99339
 2018-Oct-14 06:04     22 01 17.667540 +23 13 21.00758
 2018-Oct-14 06:05     22 01 17.397318 +23 13 23.02154
 2018-Oct-14 06:06     22 01 17.127188 +23 13 25.03526
 2018-Oct-14 06:07     22 01 16.857152 +23 13 27.04875
 2018-Oct-14 06:08     22 01 16.587210 +23 13 29.06202
 2018-Oct-14 06:09     22 01 16.317361 +23 13 31.07505
 2018-Oct-14 06:10     22 01 16.047605 +23 13 33.08787
 2018-Oct-14 06:11     22 01 15.777944 +23 13 35.10046
 2018-Oct-14 06:12     22 01 15.508376 +23 13 37.11283
 2018-Oct-14 06:13     22 01 15.238902 +23 13 39.12498
 2018-Oct-14 06:14     22 01 14.969523 +23 13 41.13691
 2018-Oct-14 06:15     22 01 14.700237 +23 13 43.14863
 2018-Oct-14 06:16     22 01 14.431046 +23 13 45.16014
 2018-Oct-14 06:17     22 01 14.161949 +23 13 47.17144
 2018-Oct-14 06:18     22 01 13.892947 +23 13 49.18254
 2018-Oct-14 06:19     22 01 13.624040 +23 13 51.19342
 2018-Oct-14 06:20     22 01 13.355227 +23 13 53.20410
 2018-Oct-14 06:21     22 01 13.086508 +23 13 55.21459
 2018-Oct-14 06:22     22 01 12.817885 +23 13 57.22487
 2018-Oct-14 06:23     22 01 12.549357 +23 13 59.23495
 2018-Oct-14 06:24     22 01 12.280923 +23 14 01.24484
 2018-Oct-14 06:25     22 01 12.012585 +23 14 03.25454
 2018-Oct-14 06:26     22 01 11.744342 +23 14 05.26404
 2018-Oct-14 06:27     22 01 11.476194 +23 14 07.27336
 2018-Oct-14 06:28  s  22 01 11.208142 +23 14 09.28249
 2018-Oct-14 06:29     22 01 10.940185 +23 14 11.29144
 2018-Oct-14 06:30     22 01 10.672323 +23 14 13.30020
 2018-Oct-14 06:31     22 01 10.404558 +23 14 15.30878
 2018-Oct-14 06:32     22 01 10.136887 +23 14 17.31719
 2018-Oct-14 06:33     22 01 09.869313 +23 14 19.32542
 2018-Oct-14 06:34     22 01 09.601834 +23 14 21.33347
 2018-Oct-14 06:35     22 01 09.334452 +23 14 23.34136
 2018-Oct-14 06:36     22 01 09.067165 +23 14 25.34907
 2018-Oct-14 06:37     22 01 08.799974 +23 14 27.35662
 2018-Oct-14 06:38     22 01 08.532879 +23 14 29.36400
 2018-Oct-14 06:39     22 01 08.265881 +23 14 31.37122
 2018-Oct-14 06:40     22 01 07.998978 +23 14 33.37828
 2018-Oct-14 06:41     22 01 07.732172 +23 14 35.38518
 2018-Oct-14 06:42     22 01 07.465462 +23 14 37.39192
 2018-Oct-14 06:43     22 01 07.198849 +23 14 39.39851
 2018-Oct-14 06:44     22 01 06.932332 +23 14 41.40494
 2018-Oct-14 06:45     22 01 06.665911 +23 14 43.41123
 2018-Oct-14 06:46     22 01 06.399587 +23 14 45.41736
 2018-Oct-14 06:47     22 01 06.133360 +23 14 47.42336
 2018-Oct-14 06:48     22 01 05.867229 +23 14 49.42920
 2018-Oct-14 06:49     22 01 05.601194 +23 14 51.43491
 2018-Oct-14 06:50     22 01 05.335257 +23 14 53.44048
 2018-Oct-14 06:51     22 01 05.069416 +23 14 55.44590
 2018-Oct-14 06:52     22 01 04.803672 +23 14 57.45120
 2018-Oct-14 06:53     22 01 04.538024 +23 14 59.45636
 2018-Oct-14 06:54     22 01 04.272474 +23 15 01.46139
 2018-Oct-14 06:55     22 01 04.007020 +23 15 03.46629
 2018-Oct-14 06:56     22 01 03.741663 +23 15 05.47107
 2018-Oct-14 06:57     22 01 03.476404 +23 15 07.47572
 2018-Oct-14 06:58     22 01 03.211241 +23 15 09.48025
 2018-Oct-14 06:59     22 01 02.946175 +23 15 11.48466
 2018-Oct-14 07:00     22 01 02.681206 +23 15 13.48895
 2018-Oct-14 07:01     22 01 02.416334 +23 15 15.49312
 2018-Oct-14 07:02     22 01 02.151559 +23 15 17.49718
 2018-Oct-14 07:03     22 01 01.886882 +23 15 19.50114
 2018-Oct-14 07:04     22 01 01.622301 +23 15 21.50498
 2018-Oct-14 07:05     22 01 01.357818 +23 15 23.50871
 2018-Oct-14 07:06     22 01 01.093431 +23 15 25.51234
 2018-Oct-14 07:07     22 01 00.829142 +23 15 27.51587
 2018-Oct-14 07:08     22 01 00.564950 +23 15 29.51930
 2018-Oct-14 07:09     22 01 00.300855 +23 15 31.52263
 2018-Oct-14 07:10     22 01 00.036857 +23 15 33.52586
 2018-Oct-14 07:11     22 00 59.772956 +23 15 35.52900
